ORBCOMM FM33            
1 25983U 99065D   25144.22666665  .00000732  00000+0  27546-3 0  9999
2 25983  45.0278 112.8687 0010425 302.7657  57.2188 14.39952142332683
ORBCOMM FM36            
1 25984U 99065E   25144.22975706  .00000792  00000+0  30575-3 0  9991
2 25984  45.0380 204.4253 0004497 212.1057 147.9518 14.38071647331566
ORBCOMM FM35            
1 25985U 99065F   25143.63617515  .00000614  00000+0  25249-3 0  9992
2 25985  45.0386 212.0780 0005692 262.9362  97.0839 14.37048343331447
ORBCOMM FM34            
1 25986U 99065G   25143.88070258  .00000573  00000+0  23865-3 0  9993
2 25986  45.0379 211.3954 0005921 231.2523 128.7797 14.37077849331402
ORBCOMM FM38            
1 33060U 08031A   25144.19841162  .00001559  00000+0  22526-3 0  9991
2 33060  48.4414  69.5602 0005395 296.0163  64.0196 14.81234181911185
ORBCOMM FM41            
1 33061U 08031B   25144.22353866  .00001551  00000+0  22632-3 0  9995
2 33061  48.4447  77.1366 0004640 281.8718 230.7173 14.80820772911121
ORBCOMM FM29            
1 33062U 08031C   25143.85194728  .00001570  00000+0  22837-3 0  9992
2 33062  48.4396  86.7448 0006350 279.8609 125.2984 14.80918763910549
ORBCOMM FM39            
1 33063U 08031D   25143.64794318  .00001259  00000+0  19480-3 0  9995
2 33063  48.4400 111.7210 0007261 253.1582 106.8537 14.79482353910165
